TECHNOSAT               
1 42829U 17042E   26087.45161147  .00004457  00000+0  32196-3 0  9994
2 42829  97.4185 248.2528 0017931  13.9515 346.2203 15.04435716474569
FLYING LAPTOP           
1 42831U 17042G   26087.58256046  .00003761  00000+0  30073-3 0  9993
2 42831  97.4331 246.4243 0020031  37.1156 323.1449 15.00639476474362
HAWK-A                  
1 43765U 18099H   26087.59378056  .00008053  00000+0  33440-3 0  9990
2 43765  97.4017 140.9063 0035090 206.5949 153.3490 15.23526152400821
HAWK-B                  
1 43794U 18099AN  26087.58693278  .00007132  00000+0  31300-3 0  9997
2 43794  97.4068 140.4781 0031707 224.0964 135.7744 15.21801388400779
HAWK-C                  
1 43799U 18099AT  26087.55046847  .00010440  00000+0  38989-3 0  9999
2 43799  97.3995 141.3923 0041105 208.6220 151.2763 15.26756284401602
SALSAT                  
1 46495U 20068K   26087.52869768  .00010340  00000+0  37480-3 0  9990
2 46495  97.8863  85.7603 0008674 217.3238 142.7398 15.28540300303032
HAWK-2C                 
1 47502U 21006CT  26087.59998517  .00015338  00000+0  47337-3 0  9999
2 47502  97.2382 133.5371 0008769 123.5022 236.7060 15.33615498287140
HAWK-2A                 
1 47505U 21006CW  26087.60316893  .00008301  00000+0  25739-3 0  9999
2 47505  97.2427 134.1709 0008222 126.6332 233.5668 15.33631044287141
HAWK-2B                 
1 47508U 21006CZ  26087.60020527  .00009325  00000+0  28904-3 0  9992
2 47508  97.2300 132.6342 0008885 124.8132 235.3948 15.33600872287149
HAWK-3B                 
1 48931U 21059BE  26087.50852906  .00049835  00000+0  54625-3 0  9993
2 48931  97.6721 276.9708 0004787 258.4103 101.6618 15.63101522265223
HAWK-3C                 
1 48948U 21059BX  26087.50822519  .00046642  00000+0  51134-3 0  9993
2 48948  97.6862 282.5085 0005017 260.3077  99.7614 15.63110295265227
HAWK-3A                 
1 48957U 21059CG  26087.50809675  .00049455  00000+0  54200-3 0  9993
2 48957  97.6800 279.7797 0004754 259.6026 100.4696 15.63107228265221
HAWK-5C                 
1 52754U 22057Y   26087.40619199  .00024467  00000+0  46333-3 0  9995
2 52754  97.6479 242.1126 0004637  14.5340 345.6042 15.48354170213831
HAWK-5B                 
1 52756U 22057AA  26087.40606227  .00024441  00000+0  46284-3 0  9992
2 52756  97.6482 240.4537 0004505   7.6674 352.4644 15.48355172213838
HAWK-5A                 
1 52757U 22057AB  26087.53508576  .00024309  00000+0  46040-3 0  9998
2 52757  97.6481 241.4239 0004926   9.5213 350.6129 15.48350832213853
HAWK-6B                 
1 55324U 23011A   26087.43906402  .00006715  00000+0  29493-3 0  9995
2 55324  40.4993 102.7822 0003547 208.2637 151.7980 15.22135684175538
HAWK-6C                 
1 55326U 23011C   26087.11041731  .00006061  00000+0  26706-3 0  9995
2 55326  40.4973 101.5435 0003321 196.4304 163.6398 15.22130844175497
