[{"OBJECT_NAME":"TECHNOSAT","OBJECT_ID":"2017-042E","EPOCH":"2026-03-28T10:50:19.231008","MEAN_MOTION":15.04435716,"ECCENTRICITY":0.00179316,"INCLINATION":97.4185,"RA_OF_ASC_NODE":248.2528,"ARG_OF_PERICENTER":13.9515,"MEAN_ANOMALY":346.2203,"EPHEMERIS_TYPE":0,"CLASSIFICATION_TYPE":"U","NORAD_CAT_ID":42829,"ELEMENT_SET_NO":999,"REV_AT_EPOCH":47456,"BSTAR":0.00032195616,"MEAN_MOTION_DOT":4.457e-5,"MEAN_MOTION_DDOT":0},{"OBJECT_NAME":"FLYING LAPTOP","OBJECT_ID":"2017-042G","EPOCH":"2026-03-28T13:58:53.223744","MEAN_MOTION":15.00639476,"ECCENTRICITY":0.00200313,"INCLINATION":97.4331,"RA_OF_ASC_NODE":246.4243,"ARG_OF_PERICENTER":37.1156,"MEAN_ANOMALY":323.1449,"EPHEMERIS_TYPE":0,"CLASSIFICATION_TYPE":"U","NORAD_CAT_ID":42831,"ELEMENT_SET_NO":999,"REV_AT_EPOCH":47436,"BSTAR":0.0003007306,"MEAN_MOTION_DOT":3.761e-5,"MEAN_MOTION_DDOT":0},{"OBJECT_NAME":"HAWK-A","OBJECT_ID":"2018-099H","EPOCH":"2026-03-28T14:15:02.640384","MEAN_MOTION":15.23526152,"ECCENTRICITY":0.00350901,"INCLINATION":97.4017,"RA_OF_ASC_NODE":140.9063,"ARG_OF_PERICENTER":206.5949,"MEAN_ANOMALY":153.349,"EPHEMERIS_TYPE":0,"CLASSIFICATION_TYPE":"U","NORAD_CAT_ID":43765,"ELEMENT_SET_NO":999,"REV_AT_EPOCH":40082,"BSTAR":0.00033440413,"MEAN_MOTION_DOT":8.053e-5,"MEAN_MOTION_DDOT":0},{"OBJECT_NAME":"HAWK-B","OBJECT_ID":"2018-099AN","EPOCH":"2026-03-28T14:05:10.992192","MEAN_MOTION":15.21801388,"ECCENTRICITY":0.00317071,"INCLINATION":97.4068,"RA_OF_ASC_NODE":140.4781,"ARG_OF_PERICENTER":224.0964,"MEAN_ANOMALY":135.7744,"EPHEMERIS_TYPE":0,"CLASSIFICATION_TYPE":"U","NORAD_CAT_ID":43794,"ELEMENT_SET_NO":999,"REV_AT_EPOCH":40077,"BSTAR":0.00031300051,"MEAN_MOTION_DOT":7.132e-5,"MEAN_MOTION_DDOT":0},{"OBJECT_NAME":"HAWK-C","OBJECT_ID":"2018-099AT","EPOCH":"2026-03-28T13:12:40.475808","MEAN_MOTION":15.26756284,"ECCENTRICITY":0.00411052,"INCLINATION":97.3995,"RA_OF_ASC_NODE":141.3923,"ARG_OF_PERICENTER":208.622,"MEAN_ANOMALY":151.2763,"EPHEMERIS_TYPE":0,"CLASSIFICATION_TYPE":"U","NORAD_CAT_ID":43799,"ELEMENT_SET_NO":999,"REV_AT_EPOCH":40160,"BSTAR":0.00038988674,"MEAN_MOTION_DOT":0.0001044,"MEAN_MOTION_DDOT":0},{"OBJECT_NAME":"SALSAT","OBJECT_ID":"2020-068K","EPOCH":"2026-03-28T12:41:19.479552","MEAN_MOTION":15.285403,"ECCENTRICITY":0.00086745,"INCLINATION":97.8863,"RA_OF_ASC_NODE":85.7603,"ARG_OF_PERICENTER":217.3238,"MEAN_ANOMALY":142.7398,"EPHEMERIS_TYPE":0,"CLASSIFICATION_TYPE":"U","NORAD_CAT_ID":46495,"ELEMENT_SET_NO":999,"REV_AT_EPOCH":30303,"BSTAR":0.00037480321,"MEAN_MOTION_DOT":0.0001034,"MEAN_MOTION_DDOT":0},{"OBJECT_NAME":"HAWK-2C","OBJECT_ID":"2021-006CT","EPOCH":"2026-03-28T14:23:58.718688","MEAN_MOTION":15.33615498,"ECCENTRICITY":0.00087696,"INCLINATION":97.2382,"RA_OF_ASC_NODE":133.5371,"ARG_OF_PERICENTER":123.5022,"MEAN_ANOMALY":236.706,"EPHEMERIS_TYPE":0,"CLASSIFICATION_TYPE":"U","NORAD_CAT_ID":47502,"ELEMENT_SET_NO":999,"REV_AT_EPOCH":28714,"BSTAR":0.00047336846,"MEAN_MOTION_DOT":0.00015338,"MEAN_MOTION_DDOT":0},{"OBJECT_NAME":"HAWK-2A","OBJECT_ID":"2021-006CW","EPOCH":"2026-03-28T14:28:33.795552","MEAN_MOTION":15.33631044,"ECCENTRICITY":0.0008222,"INCLINATION":97.2427,"RA_OF_ASC_NODE":134.1709,"ARG_OF_PERICENTER":126.6332,"MEAN_ANOMALY":233.5668,"EPHEMERIS_TYPE":0,"CLASSIFICATION_TYPE":"U","NORAD_CAT_ID":47505,"ELEMENT_SET_NO":999,"REV_AT_EPOCH":28714,"BSTAR":0.00025739306,"MEAN_MOTION_DOT":8.301e-5,"MEAN_MOTION_DDOT":0},{"OBJECT_NAME":"HAWK-2B","OBJECT_ID":"2021-006CZ","EPOCH":"2026-03-28T14:24:17.735328","MEAN_MOTION":15.33600872,"ECCENTRICITY":0.00088857,"INCLINATION":97.23,"RA_OF_ASC_NODE":132.6342,"ARG_OF_PERICENTER":124.8132,"MEAN_ANOMALY":235.3948,"EPHEMERIS_TYPE":0,"CLASSIFICATION_TYPE":"U","NORAD_CAT_ID":47508,"ELEMENT_SET_NO":999,"REV_AT_EPOCH":28714,"BSTAR":0.00028904166,"MEAN_MOTION_DOT":9.325e-5,"MEAN_MOTION_DDOT":0},{"OBJECT_NAME":"HAWK-3B","OBJECT_ID":"2021-059BE","EPOCH":"2026-03-28T12:12:16.910784","MEAN_MOTION":15.63101522,"ECCENTRICITY":0.0004787,"INCLINATION":97.6721,"RA_OF_ASC_NODE":276.9708,"ARG_OF_PERICENTER":258.4103,"MEAN_ANOMALY":101.6618,"EPHEMERIS_TYPE":0,"CLASSIFICATION_TYPE":"U","NORAD_CAT_ID":48931,"ELEMENT_SET_NO":999,"REV_AT_EPOCH":26522,"BSTAR":0.00054625,"MEAN_MOTION_DOT":0.00049835,"MEAN_MOTION_DDOT":0},{"OBJECT_NAME":"HAWK-3C","OBJECT_ID":"2021-059BX","EPOCH":"2026-03-28T12:11:50.656416","MEAN_MOTION":15.63110295,"ECCENTRICITY":0.0005017,"INCLINATION":97.6862,"RA_OF_ASC_NODE":282.5085,"ARG_OF_PERICENTER":260.3077,"MEAN_ANOMALY":99.7614,"EPHEMERIS_TYPE":0,"CLASSIFICATION_TYPE":"U","NORAD_CAT_ID":48948,"ELEMENT_SET_NO":999,"REV_AT_EPOCH":26522,"BSTAR":0.00051134,"MEAN_MOTION_DOT":0.00046642,"MEAN_MOTION_DDOT":0},{"OBJECT_NAME":"HAWK-3A","OBJECT_ID":"2021-059CG","EPOCH":"2026-03-28T12:11:39.559200","MEAN_MOTION":15.63107228,"ECCENTRICITY":0.0004754,"INCLINATION":97.68,"RA_OF_ASC_NODE":279.7797,"ARG_OF_PERICENTER":259.6026,"MEAN_ANOMALY":100.4696,"EPHEMERIS_TYPE":0,"CLASSIFICATION_TYPE":"U","NORAD_CAT_ID":48957,"ELEMENT_SET_NO":999,"REV_AT_EPOCH":26522,"BSTAR":0.000542,"MEAN_MOTION_DOT":0.00049455,"MEAN_MOTION_DDOT":0},{"OBJECT_NAME":"HAWK-5C","OBJECT_ID":"2022-057Y","EPOCH":"2026-03-28T09:44:54.987936","MEAN_MOTION":15.4835417,"ECCENTRICITY":0.00046377,"INCLINATION":97.6479,"RA_OF_ASC_NODE":242.1126,"ARG_OF_PERICENTER":14.534,"MEAN_ANOMALY":345.6042,"EPHEMERIS_TYPE":0,"CLASSIFICATION_TYPE":"U","NORAD_CAT_ID":52754,"ELEMENT_SET_NO":999,"REV_AT_EPOCH":21383,"BSTAR":0.00046333311,"MEAN_MOTION_DOT":0.00024467,"MEAN_MOTION_DDOT":0},{"OBJECT_NAME":"HAWK-5B","OBJECT_ID":"2022-057AA","EPOCH":"2026-03-28T09:44:43.780128","MEAN_MOTION":15.48355172,"ECCENTRICITY":0.0004505,"INCLINATION":97.6482,"RA_OF_ASC_NODE":240.4537,"ARG_OF_PERICENTER":7.6674,"MEAN_ANOMALY":352.4644,"EPHEMERIS_TYPE":0,"CLASSIFICATION_TYPE":"U","NORAD_CAT_ID":52756,"ELEMENT_SET_NO":999,"REV_AT_EPOCH":21383,"BSTAR":0.00046284241,"MEAN_MOTION_DOT":0.00024441,"MEAN_MOTION_DDOT":0},{"OBJECT_NAME":"HAWK-5A","OBJECT_ID":"2022-057AB","EPOCH":"2026-03-28T12:50:31.409664","MEAN_MOTION":15.48350832,"ECCENTRICITY":0.00049269,"INCLINATION":97.6481,"RA_OF_ASC_NODE":241.4239,"ARG_OF_PERICENTER":9.5213,"MEAN_ANOMALY":350.6129,"EPHEMERIS_TYPE":0,"CLASSIFICATION_TYPE":"U","NORAD_CAT_ID":52757,"ELEMENT_SET_NO":999,"REV_AT_EPOCH":21385,"BSTAR":0.00046039565,"MEAN_MOTION_DOT":0.00024309,"MEAN_MOTION_DDOT":0},{"OBJECT_NAME":"HAWK-6B","OBJECT_ID":"2023-011A","EPOCH":"2026-03-28T10:32:15.131328","MEAN_MOTION":15.22135684,"ECCENTRICITY":0.00035473,"INCLINATION":40.4993,"RA_OF_ASC_NODE":102.7822,"ARG_OF_PERICENTER":208.2637,"MEAN_ANOMALY":151.798,"EPHEMERIS_TYPE":0,"CLASSIFICATION_TYPE":"U","NORAD_CAT_ID":55324,"ELEMENT_SET_NO":999,"REV_AT_EPOCH":17553,"BSTAR":0.00029492913,"MEAN_MOTION_DOT":6.715e-5,"MEAN_MOTION_DDOT":0},{"OBJECT_NAME":"HAWK-6C","OBJECT_ID":"2023-011C","EPOCH":"2026-03-28T02:39:00.055584","MEAN_MOTION":15.22130844,"ECCENTRICITY":0.0003321,"INCLINATION":40.4973,"RA_OF_ASC_NODE":101.5435,"ARG_OF_PERICENTER":196.4304,"MEAN_ANOMALY":163.6398,"EPHEMERIS_TYPE":0,"CLASSIFICATION_TYPE":"U","NORAD_CAT_ID":55326,"ELEMENT_SET_NO":999,"REV_AT_EPOCH":17549,"BSTAR":0.00026705659,"MEAN_MOTION_DOT":6.061e-5,"MEAN_MOTION_DDOT":0}]
